NORAD_CAT_ID,OBJECT_NAME,OBJECT_TYPE,EPOCH,MEAN_MOTION,ECCENTRICITY,INCLINATION,RA_OF_ASC_NODE,ARG_OF_PERICENTER,MEAN_ANOMALY,BSTAR,MEAN_MOTION_DOT,MEAN_MOTION_DDOT,TLE_LINE0,TLE_LINE1,TLE_LINE2,SEMIMAJOR_AXIS,PERIOD,APOGEE,PERIGEE,DECAYED
53168.0,STARLINK-4105,PAYLOAD,2022-08-09 14:00:01,15.73133978,0.0002366,53.218,293.0281,22.3243,62.9218,-0.0003447,-0.00048589,0.0,0 STARLINK-4105,1 53168U 22083AN  22221.58334491 -.00048589  00000-0 -34470-3 0  9991,2 53168  53.2180 293.0281 0002366  22.3243  62.9218 15.73133978  4269,6728.083000000001,91.537,351.54,348.357,0.0
53168.0,STARLINK-4105,PAYLOAD,2022-08-09 22:00:00,15.73098833,0.0002215,53.2179,291.3773,18.304,155.781,0.00017121,0.00023372,0.0,0 STARLINK-4105,1 53168U 22083AN  22221.91667824  .00023372  00000-0  17121-3 0  9992,2 53168  53.2179 291.3773 0002215  18.3040 155.7810 15.73098833  1308,6728.184,91.539,351.539,348.55800000000005,0.0
53168.0,STARLINK-4105,PAYLOAD,2022-08-10 04:00:00,15.7311236,0.0002125,53.2179,290.1396,20.8651,129.8343,0.00059758,0.00083774,0.0,0 STARLINK-4105,1 53168U 22083AN  22222.16667824  .00083774  00000-0  59758-3 0  9994,2 53168  53.2179 290.1396 0002125  20.8651 129.8343 15.73112360  4366,6728.145,91.538,351.44,348.58,0.0
53168.0,STARLINK-4105,PAYLOAD,2022-08-10 14:00:01,15.73149321,0.0002496,53.218,288.0805,17.073,334.6779,0.0010425999999999,0.00147994,0.0,0 STARLINK-4105,1 53168U 22083AN  22222.58334491  .00147994  00000-0  10426-2 0  9994,2 53168  53.2180 288.0805 0002496  17.0730 334.6779 15.73149321  1303,6728.04,91.536,351.584,348.225,0.0
53168.0,STARLINK-4105,PAYLOAD,2022-08-10 22:00:00,15.73231673,0.0002342,53.2177,286.4295,18.2415,62.4455,-0.00026973,-0.0003836,0.0,0 STARLINK-4105,1 53168U 22083AN  22222.91667824 -.00038360  00000-0 -26973-3 0  9993,2 53168  53.2177 286.4295 0002342  18.2415  62.4455 15.73231673  1306,6727.805,91.531,351.246,348.094,0.0
53168.0,STARLINK-4105,PAYLOAD,2022-08-11 14:00:01,15.73155074,0.0002757,53.217,283.1327,25.625,232.9409,0.00057161,0.00080225,0.0,0 STARLINK-4105,1 53168U 22083AN  22223.58334491  .00080225  00000-0  57161-3 0  9996,2 53168  53.2170 283.1327 0002757  25.6250 232.9409 15.73155074  1301,6728.023,91.536,351.74300000000005,348.033,0.0
53168.0,STARLINK-4105,PAYLOAD,2022-08-11 20:00:01,15.73236249,0.00025,53.2167,281.8941,16.3155,219.0073,-8.3707e-05,-0.00012373,0.0,0 STARLINK-4105,1 53168U 22083AN  22223.83334491 -.00012373  00000-0 -83707-4 0  9991,2 53168  53.2167 281.8941 0002500  16.3155 219.0073 15.73236249  4626,6727.792,91.531,351.339,347.975,0.0
53168.0,STARLINK-4105,PAYLOAD,2022-08-12 14:00:01,15.73234713,0.0002756,53.2168,278.1839,19.2549,146.2515,0.00011392,0.00015421,0.0,0 STARLINK-4105,1 53168U 22083AN  22224.58334491  .00015421  00000-0  11392-3 0  9999,2 53168  53.2168 278.1839 0002756  19.2549 146.2515 15.73234713  4743,6727.795999999999,91.531,351.515,347.807,0.0
53168.0,STARLINK-4105,PAYLOAD,2022-08-12 20:00:01,15.73261003,0.0002615,53.2166,276.9453,16.1352,126.1601,-0.0010147,-0.00141065,0.0,0 STARLINK-4105,1 53168U 22083AN  22224.83335648 -.00141065  00000-0 -10147-2 0  9994,2 53168  53.2166 276.9453 0002615  16.1352 126.1601 15.73261003  4780,6727.721,91.53,351.346,347.827,0.0
53168.0,STARLINK-4105,PAYLOAD,2022-08-12 22:00:01,15.73204501,0.0002543,53.2167,276.5324,16.1547,238.3954,-0.00040211,-0.00056697,0.0,0 STARLINK-4105,1 53168U 22083AN  22224.91668981 -.00056697  00000-0 -40211-3 0  9994,2 53168  53.2167 276.5324 0002543  16.1547 238.3954 15.73204501  1302,6727.882,91.533,351.458,348.036,0.0
53168.0,STARLINK-4105,PAYLOAD,2022-08-13 04:00:00,15.73192992,0.0002463999999999,53.2165,275.2952,17.2945,213.8692,-0.00024008,-0.00034174,0.0,0 STARLINK-4105,1 53168U 22083AN  22225.16667824 -.00034174  00000-0 -24008-3 0  9999,2 53168  53.2165 275.2952 0002464  17.2945 213.8692 15.73192992  4837,6727.915,91.534,351.43800000000016,348.122,0.0
53168.0,STARLINK-4105,PAYLOAD,2022-08-13 14:00:01,15.73092861,0.0002866,53.2158,273.2356,19.3322,52.947,0.00060422,0.00084657,0.0,0 STARLINK-4105,1 53168U 22083AN  22225.58334491  .00084657  00000-0  60422-3 0  9995,2 53168  53.2158 273.2356 0002866  19.3322  52.9470 15.73092861  1302,6728.201,91.539,351.994,348.13699999999994,0.0
53168.0,STARLINK-4105,PAYLOAD,2022-08-13 22:00:00,15.73130927,0.0002648999999999,53.2159,271.5841,20.2586,140.862,0.00038015,0.00052915,0.0,0 STARLINK-4105,1 53168U 22083AN  22225.91667824  .00052915  00000-0  38015-3 0  9996,2 53168  53.2159 271.5841 0002649  20.2586 140.8620 15.73130927  1305,6728.092,91.537,351.73900000000015,348.175,0.0
53168.0,STARLINK-4105,PAYLOAD,2022-08-14 04:00:00,15.73169265,0.0002557,53.2162,270.3441,23.6512,114.113,0.00025136,0.00034759,0.0,0 STARLINK-4105,1 53168U 22083AN  22226.16667824  .00034759  00000-0  25136-3 0  9990,2 53168  53.2162 270.3441 0002557  23.6512 114.1130 15.73169265  4991,6727.983,91.535,351.5680000000001,348.12699999999984,0.0
53168.0,STARLINK-4105,PAYLOAD,2022-08-14 12:00:00,15.73203922,0.0002751,53.2176,268.6914,19.0106,207.7372,8.169800000000001e-06,5.24e-06,0.0,0 STARLINK-4105,1 53168U 22083AN  22226.50001157  .00000524  00000-0  81698-5 0  9999,2 53168  53.2176 268.6914 0002751  19.0106 207.7372 15.73203922  5048,6727.884,91.533,351.6,347.898,0.0
53168.0,STARLINK-4105,PAYLOAD,2022-08-14 14:00:01,15.73203569,0.0002934,53.2159,268.2867,17.6917,321.4186,-9.6266e-05,-0.00014115,0.0,0 STARLINK-4105,1 53168U 22083AN  22226.58334491 -.00014115  00000-0 -96266-4 0  9996,2 53168  53.2159 268.2867 0002934  17.6917 321.4186 15.73203569  1308,6727.885,91.533,351.724,347.776,0.0
53168.0,STARLINK-4105,PAYLOAD,2022-08-14 20:00:01,15.73191678,0.0002778,53.216,267.0478,18.1502,297.6633,0.00012299,0.00016669,0.0,0 STARLINK-4105,1 53168U 22083AN  22226.83334491  .00016669  00000-0  12299-3 0  9991,2 53168  53.2160 267.0478 0002778  18.1502 297.6633 15.73191678  5095,6727.919,91.534,351.653,347.915,0.0
53168.0,STARLINK-4105,PAYLOAD,2022-08-14 22:00:00,15.73182931,0.000273,53.216,266.6351,18.648,49.4,0.00030063,0.00041755,0.0,0 STARLINK-4105,1 53168U 22083AN  22226.91667824  .00041755  00000-0  30063-3 0  9992,2 53168  53.2160 266.6351 0002730  18.6480  49.4000 15.73182931  1301,6727.944,91.534,351.646,347.972,0.0
53168.0,STARLINK-4105,PAYLOAD,2022-08-15 14:00:01,15.7317211,0.0003048,53.2153,263.338,21.2247,224.6559,0.00010653,0.00014339,0.0,0 STARLINK-4105,1 53168U 22083AN  22227.58334491  .00014339  00000-0  10653-3 0  9998,2 53168  53.2153 263.3380 0003048  21.2247 224.6559 15.73172110  5211,6727.975,91.535,351.89,347.789,0.0
53168.0,STARLINK-4105,PAYLOAD,2022-08-15 22:00:00,15.73138585,0.0002773999999999,53.2154,261.6863,22.3167,312.4937,0.00034294,0.00047662,0.0,0 STARLINK-4105,1 53168U 22083AN  22227.91667824  .00047662  00000-0  34294-3 0  9996,2 53168  53.2154 261.6863 0002774  22.3167 312.4937 15.73138585  1307,6728.07,91.537,351.802,348.069,0.0
53168.0,STARLINK-4105,PAYLOAD,2022-08-16 14:00:01,15.73185552,0.0003074,53.2157,258.3893,20.811,131.7928,0.00051634,0.00072438,0.0,0 STARLINK-4105,1 53168U 22083AN  22228.58334491  .00072438  00000-0  51634-3 0  9997,2 53168  53.2157 258.3893 0003074  20.8110 131.7928 15.73185552  1309,6727.936,91.534,351.87,347.733,0.0
53168.0,STARLINK-4105,PAYLOAD,2022-08-16 22:00:00,15.73234523,0.0002824,53.2159,256.7376,21.2323,220.3192,-7.2833e-05,-0.00010849,0.0,0 STARLINK-4105,1 53168U 22083AN  22228.91667824 -.00010849  00000-0 -72833-4 0  9998,2 53168  53.2159 256.7376 0002824  21.2323 220.3192 15.73234523  1303,6727.797,91.531,351.56199999999984,347.76199999999994,0.0
53168.0,STARLINK-4105,PAYLOAD,2022-08-17 14:00:01,15.73234086,0.0003067,53.2151,253.4405,16.8778,42.5725,-0.00032925,-0.00046655,0.0,0 STARLINK-4105,1 53168U 22083AN  22229.58334491 -.00046655  00000-0 -32925-3 0  9994,2 53168  53.2151 253.4405 0003067  16.8778  42.5725 15.73234086  1306,6727.7980000000025,91.531,351.726,347.6,0.0
53168.0,STARLINK-4105,PAYLOAD,2022-08-17 16:00:00,15.73252585,0.0002973,53.2154,253.0263,17.1109,154.5742,-0.00074333,-0.00103928,0.0,0 STARLINK-4105,1 53168U 22083AN  22229.66667824 -.00103928  00000-0 -74333-3 0  9998,2 53168  53.2154 253.0263 0002973  17.1109 154.5742 15.73252585  5541,6727.745,91.53,351.61,347.61,0.0
53168.0,STARLINK-4105,PAYLOAD,2022-08-18 06:00:02,15.73071034,0.0002927,53.217,250.134,19.9798,217.4284,0.0012855,0.00182775,0.0,0 STARLINK-4105,1 53168U 22083AN  22230.25002315  .00182775  00000-0  12855-2 0  9998,2 53168  53.2170 250.1340 0002927  19.9798 217.4284 15.73071034  5634,6728.263000000001,91.541,352.097,348.159,0.0
53168.0,STARLINK-4105,PAYLOAD,2022-08-18 14:00:01,15.7320492,0.0003078,53.2173,248.4836,19.03,307.1623,2.4981e-06,-2.72e-06,0.0,0 STARLINK-4105,1 53168U 22083AN  22230.58334491 -.00000272  00000-0  24981-5 0  9995,2 53168  53.2173 248.4836 0003078  19.0300 307.1623 15.73204920  1301,6727.880999999999,91.533,351.81699999999995,347.675,0.0
53168.0,STARLINK-4105,PAYLOAD,2022-08-18 22:00:00,15.73202833,0.0002955,53.2174,246.8319,20.6785,34.4506,1.3823e-05,1.318e-05,0.0,0 STARLINK-4105,1 53168U 22083AN  22230.91667824  .00001318  00000-0  13823-4 0  9994,2 53168  53.2174 246.8319 0002955  20.6785  34.4506 15.73202833  5730,6727.887,91.533,351.74,347.764,0.0
53168.0,STARLINK-4105,PAYLOAD,2022-08-19 14:00:01,15.73139324,0.0002941,53.2147,243.543,11.79,221.4366,0.0003458,0.00048069,0.0,0 STARLINK-4105,1 53168U 22083AN  22231.58334491  .00048069  00000-0  34580-3 0  9995,2 53168  53.2147 243.5430 0002941  11.7900 221.4366 15.73139324  5841,6728.068,91.537,351.912,347.954,0.0
53168.0,STARLINK-4105,PAYLOAD,2022-08-19 20:00:01,15.731486300000002,0.0002703999999999,53.2151,242.3044,13.4552,196.4132,0.00023876,0.00032949,0.0,0 STARLINK-4105,1 53168U 22083AN  22231.83334491  .00032949  00000-0  23876-3 0  9999,2 53168  53.2151 242.3044 0002704  13.4552 196.4132 15.73148630  5889,6728.042,91.536,351.726,348.087,0.0
